     2.100          NAVIGATION                              RINEX VERSION / TYPE
fic2rin                                 03/25/2017 00:04:31 PGM / RUN BY / DATE
                                                            END OF HEADER
12 17  3 24 20  0  0.0  .386553816497D-03 -.568434188608D-12  .000000000000D+00
     .840000000000D+02  .485000000000D+02  .367372445394D-08 -.314102356383D+01
     .246241688728D-05  .659712497145D-02  .114925205708D-04  .515356788063D+04
     .504000000000D+06 -.372529029846D-07  .297473728355D+01 -.169500708580D-06
     .989811171185D+00  .168375000000D+03  .815584951313D+00 -.751674167389D-08
    -.892894335490D-11  .100000000000D+01  .194100000000D+04  .000000000000D+00
     .240000000000D+01  .000000000000D+00 -.121071934700D-07  .840000000000D+02
     .496806000000D+06  .400000000000D+01
13 17  3 24 20  0  0.0 -.752024352551D-04 -.159161572810D-11  .000000000000D+00
     .610000000000D+02  .363125000000D+02  .474341186786D-08 -.151033236018D+01
     .197812914848D-05  .398451217916D-02  .556372106075D-05  .515368030930D+04
     .504000000000D+06 -.670552253723D-07  .938267675255D+00  .577419996262D-07
     .969866854985D+00  .279000000000D+03  .184245175113D+01 -.821748514838D-08
     .307512809143D-09  .100000000000D+01  .194100000000D+04  .000000000000D+00
     .240000000000D+01  .000000000000D+00 -.111758708954D-07  .610000000000D+02
     .496806000000D+06  .400000000000D+01
14 17  3 24 20  0  0.0 -.641243532300D-04 -.159161572810D-11  .000000000000D+00
     .980000000000D+02  .382500000000D+02  .497627871055D-08 -.148866821701D+00
     .197067856789D-05  .881473394111D-02  .534392893314D-05  .515362924004D+04
     .504000000000D+06 -.707805156708D-07  .899234239893D+00  .614672899246D-07
     .962413923740D+00  .280531250000D+03 -.196052442815D+01 -.849178228825D-08
     .292869342041D-09  .100000000000D+01  .194100000000D+04  .000000000000D+00
     .240000000000D+01  .000000000000D+00 -.931322574615D-08  .980000000000D+02
     .496806000000D+06  .400000000000D+01
15 17  3 24 20  0  0.0 -.346334185451D-03 -.909494701773D-12  .000000000000D+00
     .630000000000D+02  .513437500000D+02  .557558938854D-08 -.654660796839D+00
     .287219882011D-05  .908894906752D-02  .578165054321D-05  .515376134872D+04
     .504000000000D+06  .109896063805D-06  .752957706294D+00  .987201929092D-07
     .929543503309D+00  .248781250000D+03  .578820300177D+00 -.872143471133D-08
     .440732643998D-09  .100000000000D+01  .194100000000D+04  .000000000000D+00
     .240000000000D+01  .000000000000D+00 -.107102096081D-07  .630000000000D+02
     .496806000000D+06  .400000000000D+01
16 17  3 24 20  0  0.0  .297101214528D-04  .909494701773D-12  .000000000000D+00
     .570000000000D+02  .644687500000D+02  .377015704217D-08  .116156824281D+01
     .370852649212D-05  .932045560330D-02  .107455998659D-04  .515367179489D+04
     .504000000000D+06 -.260770320892D-07  .299356997512D+01  .128522515297D-06
     .990297960102D+00  .187968750000D+03  .417316698481D+00 -.770960685036D-08
    -.112504686272D-09  .100000000000D+01  .194100000000D+04  .000000000000D+00
     .240000000000D+01  .000000000000D+00 -.107102096081D-07  .570000000000D+02
     .496806000000D+06  .400000000000D+01
17 17  3 24 20  0  0.0 -.186760444194D-03  .147792889038D-11  .000000000000D+00
     .890000000000D+02  .450937500000D+02  .447411493627D-08  .150582651983D+00
     .240094959736D-05  .116490386426D-01  .380538403988D-05  .515359617233D+04
     .504000000000D+06 -.204890966415D-06 -.227194061707D+01  .838190317154D-07
     .979311639895D+00  .318625000000D+03 -.185298905351D+01 -.847035282419D-08
     .143220251413D-09  .100000000000D+01  .194100000000D+04  .000000000000D+00
     .240000000000D+01  .000000000000D+00 -.107102096081D-07  .890000000000D+02
     .496806000000D+06  .400000000000D+01
18 17  3 24 20  0  0.0  .606561545283D-03  .227373675443D-11  .000000000000D+00
     .860000000000D+02 -.299687500000D+02  .494949188049D-08  .166788389454D+01
    -.164844095707D-05  .178362964652D-01  .116005539894D-04  .515375940704D+04
     .504000000000D+06 -.169500708580D-06 -.266959635780D+00 -.493600964546D-06
     .925889676690D+00  .138406250000D+03 -.182182886770D+01 -.824034324337D-08
     .258225041824D-09  .100000000000D+01  .194100000000D+04  .000000000000D+00
     .240000000000D+01  .000000000000D+00 -.111758708954D-07  .860000000000D+02
     .496806000000D+06  .400000000000D+01
19 17  3 24 20  0  0.0 -.509423203766D-03  .125055521494D-11  .000000000000D+00
     .790000000000D+02  .414375000000D+02  .449054419205D-08 -.298888291140D+01
     .209920108318D-05  .101979271276D-01  .308081507683D-05  .515365526581D+04
     .504000000000D+06  .502914190292D-07 -.222394369684D+01 -.169500708580D-06
     .976509980612D+00  .326656250000D+03  .934412698862D+00 -.819855578847D-08
     .156792245312D-09  .100000000000D+01  .194100000000D+04  .000000000000D+00
     .240000000000D+01  .000000000000D+00 -.153668224812D-07  .790000000000D+02
     .496806000000D+06  .400000000000D+01
20 17  3 24 20  0  0.0  .465440563858D-03  .159161572810D-11  .000000000000D+00
     .550000000000D+02 -.349375000000D+02  .492056210402D-08 -.706549882296D+00
    -.171177089214D-05  .445139314979D-02  .118892639875D-04  .515365497208D+04
     .504000000000D+06 -.372529029846D-07 -.318362965141D+00  .558793544769D-07
     .927205981119D+00  .134562500000D+03  .157469395018D+01 -.823641450830D-08
     .233938315898D-09  .100000000000D+01  .194100000000D+04  .000000000000D+00
     .240000000000D+01  .000000000000D+00 -.838190317154D-08  .550000000000D+02
     .496806000000D+06  .400000000000D+01
21 17  3 24 20  0  0.0 -.515809282660D-03  .181898940355D-11  .000000000000D+00
     .370000000000D+02 -.988437500000D+02  .490449000598D-08  .256950122213D+01
    -.520609319210D-05  .240113821346D-01  .470317900181D-05  .515371968651D+04
     .504000000000D+06  .234693288803D-06 -.130784266250D+01 -.163912773132D-06
     .938798320993D+00  .272906250000D+03 -.169312159841D+01 -.805747848346D-08
    -.377872882779D-09  .100000000000D+01  .194100000000D+04  .000000000000D+00
     .240000000000D+01  .000000000000D+00 -.977888703346D-08  .370000000000D+02
     .496806000000D+06  .400000000000D+01
22 17  3 24 20  0  0.0  .629327259958D-04 -.118234311230D-10  .000000000000D+00
     .540000000000D+02 -.906250000000D+01  .505521056981D-08 -.315172165260D+00
    -.424683094025D-06  .752943824045D-02  .121202319860D-04  .515356330299D+04
     .504000000000D+06 -.113621354103D-06 -.266966049213D+00  .193715095520D-06
     .923905515047D+00  .128406250000D+03 -.178297669812D+01 -.835249077191D-08
     .316441752498D-09  .100000000000D+01  .194100000000D+04  .000000000000D+00
     .240000000000D+01  .000000000000D+00 -.176951289177D-07  .540000000000D+02
     .496806000000D+06  .400000000000D+01
23 17  3 24 20  0  0.0 -.208316836506D-03 -.795807864051D-12  .000000000000D+00
     .540000000000D+02  .421875000000D+02  .526843373713D-08 -.107852172622D+01
     .233575701714D-05  .114064398222D-01  .521168112755D-05  .515376882172D+04
     .504000000000D+06  .279396772385D-06  .815399881935D+00  .614672899246D-07
     .944735525741D+00  .265468750000D+03 -.248981991451D+01 -.848463913356D-08
     .402159608705D-09  .100000000000D+01  .194100000000D+04  .000000000000D+00
     .240000000000D+01  .000000000000D+00 -.200234353542D-07  .540000000000D+02
     .496806000000D+06  .400000000000D+01
24 17  3 24 20  0  0.0 -.323485583067D-04 -.568434188608D-12  .000000000000D+00
     .990000000000D+02 -.455000000000D+02  .519521640162D-08 -.173501456902D+01
    -.245124101639D-05  .562472152524D-02  .661052763462D-05  .515369388771D+04
     .504000000000D+06  .372529029846D-07  .183963728254D+01 -.102445483208D-06
     .945715710112D+00  .243531250000D+03  .477387600950D+00 -.838927801853D-08
    -.355014787791D-09  .100000000000D+01  .194100000000D+04  .000000000000D+00
     .340000000000D+01  .000000000000D+00  .232830643654D-08  .990000000000D+02
     .496806000000D+06  .400000000000D+01
25 17  3 24 20  0  0.0 -.357970129699D-03 -.670752342558D-11  .000000000000D+00
     .670000000000D+02  .468125000000D+02  .390337687703D-08  .258689746419D+01
     .233948230743D-05  .636780902278D-02  .116154551506D-04  .515362144279D+04
     .504000000000D+06 -.484287738800D-07  .292026459846D+01 -.121071934700D-06
     .977759564273D+00  .162718750000D+03  .773646116758D+00 -.761103131572D-08
    -.332156692802D-10  .100000000000D+01  .194100000000D+04  .000000000000D+00
     .240000000000D+01  .000000000000D+00  .558793544769D-08  .670000000000D+02
     .496806000000D+06  .400000000000D+01
26 17  3 24 20  0  0.0 -.517318025231D-03  .170530256582D-11  .000000000000D+00
     .800000000000D+02  .524375000000D+02  .443125600817D-08  .204625330452D+01
     .291690230370D-05  .179947330616D-02  .111293047667D-04  .515368080711D+04
     .504000000000D+06 -.931322574615D-08  .290598175182D+01  .838190317154D-07
     .959552859742D+00  .166000000000D+03  .161298275292D-01 -.796211736843D-08
    -.564309220030D-10  .100000000000D+01  .194100000000D+04  .000000000000D+00
     .240000000000D+01  .000000000000D+00  .698491930962D-08  .800000000000D+02
     .496806000000D+06  .400000000000D+01
27 17  3 24 20  0  0.0  .229399651289D-03  .625277607469D-11  .000000000000D+00
     .900000000000D+02  .436250000000D+02  .453804617070D-08  .283785943978D+00
     .227615237236D-05  .458080007229D-02  .334344804287D-05  .515365749741D+04
     .504000000000D+06  .763684511185D-07 -.232356051829D+01  .260770320892D-07
     .974256211945D+00  .317031250000D+03  .296660157041D+00 -.835034782550D-08
     .118933525487D-09  .100000000000D+01  .194100000000D+04  .000000000000D+00
     .340000000000D+01  .000000000000D+00  .186264514923D-08  .900000000000D+02
     .496806000000D+06  .400000000000D+01
